NORAD_CAT_ID,OBJECT_NAME,OBJECT_TYPE,EPOCH,MEAN_MOTION,ECCENTRICITY,INCLINATION,RA_OF_ASC_NODE,ARG_OF_PERICENTER,MEAN_ANOMALY,BSTAR,MEAN_MOTION_DOT,MEAN_MOTION_DDOT,TLE_LINE0,TLE_LINE1,TLE_LINE2,SEMIMAJOR_AXIS,PERIOD,APOGEE,PERIGEE,DECAYED
54077.0,STARLINK-5171,PAYLOAD,2024-07-29 08:57:41,15.0944266,7.73e-05,53.2159,84.8346,117.7985,242.3086,0.0016658,0.00026766,0.0,0 STARLINK-5171,1 54077U 22136AC  24211.37339691  .00026766  00000-0  16658-2 0  9993,2 54077  53.2159  84.8346 0000773 117.7985 242.3086 15.09442660 98793,6916.039,95.399,538.439,537.369,0.0
54077.0,STARLINK-5171,PAYLOAD,2024-07-29 21:40:27,15.0947092,7.28e-05,53.2158,82.4547,115.8007,244.3061,0.0018173,0.00029259,0.0,0 STARLINK-5171,1 54077U 22136AC  24211.90310018  .00029259  00000-0  18173-2 0  9998,2 54077  53.2158  82.4547 0000728 115.8007 244.3061 15.09470920 98394,6915.953,95.398,538.321,537.314,0.0
54077.0,STARLINK-5171,PAYLOAD,2024-07-30 08:47:52,15.095,6.7e-05,53.216,80.3719,116.5965,243.5096,0.0020351,0.00032844,0.0,0 STARLINK-5171,1 54077U 22136AC  24212.36658136  .00032844  00000-0  20351-2 0  9990,2 54077  53.2160  80.3719 0000670 116.5965 243.5096 15.09500000 98462,6915.864,95.396,538.192,537.265,0.0
54077.0,STARLINK-5171,PAYLOAD,2024-07-30 21:30:37,15.09531495,6.63e-05,53.216,77.9919,111.1034,249.003,0.0021538,0.00034816,0.0,0 STARLINK-5171,1 54077U 22136AC  24212.89626484  .00034816  00000-0  21538-2 0  9998,2 54077  53.2160  77.9919 0000663 111.1034 249.0030 15.09531495 99020,6915.768,95.394,538.091,537.174,0.0
54077.0,STARLINK-5171,PAYLOAD,2024-07-31 08:38:00,15.095619,5.97e-05,53.2163,75.9088,112.0951,248.0105,0.0023011,0.00037262,0.0,0 STARLINK-5171,1 54077U 22136AC  24213.35972780  .00037262  00000-0  23011-2 0  9999,2 54077  53.2163  75.9088 0000597 112.0951 248.0105 15.09561900 98612,6915.675,95.392,537.953,537.127,0.0
54077.0,STARLINK-5171,PAYLOAD,2024-07-31 21:20:43,15.09592928,6.13e-05,53.2164,73.5281,119.9975,240.1078,0.0023304,0.00037775,0.0,0 STARLINK-5171,1 54077U 22136AC  24213.88938958  .00037775  00000-0  23304-2 0  9990,2 54077  53.2164  73.5281 0000613 119.9975 240.1078 15.09592928 98697,6915.58,95.39,537.869,537.021,0.0
54077.0,STARLINK-5171,PAYLOAD,2024-08-01 14:49:25,15.09640218,5.77e-05,53.2168,70.2544,122.7874,237.3174,0.0020596,0.00033374,0.0,0 STARLINK-5171,1 54077U 22136AC  24214.61765338  .00033374  00000-0  20596-2 0  9993,2 54077  53.2168  70.2544 0000577 122.7874 237.3174 15.09640218 98800,6915.436,95.387,537.7,536.902,0.0
54077.0,STARLINK-5171,PAYLOAD,2024-08-01 21:10:45,15.09657295,5.13e-05,53.217,69.0647,105.58,254.5249,0.0020188,0.0003272,0.0,0 STARLINK-5171,1 54077U 22136AC  24214.88247125  .00032720  00000-0  20188-2 0  9992,2 54077  53.2170  69.0647 0000513 105.5800 254.5249 15.09657295 98842,6915.383,95.386,537.603,536.894,0.0
54077.0,STARLINK-5171,PAYLOAD,2024-08-02 14:39:24,15.09699933,4.25e-05,53.2171,65.7912,104.085,256.019,0.0017098,0.0002768,0.0,0 STARLINK-5171,1 54077U 22136AC  24215.61070483  .00027680  00000-0  17098-2 0  9990,2 54077  53.2171  65.7912 0000425 104.0850 256.0190 15.09699933 98951,6915.253,95.383,537.412,536.824,0.0
54077.0,STARLINK-5171,PAYLOAD,2024-08-02 21:00:44,15.097178,3.68e-05,53.217,64.6014,100.6039,259.4995,0.0019741,0.00032039,0.0,0 STARLINK-5171,1 54077U 22136AC  24215.87551202  .00032039  00000-0  19741-2 0  9992,2 54077  53.2170  64.6014 0000368 100.6039 259.4995 15.09717800 98996,6915.199,95.382,537.318,536.809,0.0
54077.0,STARLINK-5171,PAYLOAD,2024-08-03 06:32:42,15.09740091,3.27e-05,53.2169,62.8153,100.2395,259.8634,0.0017758,0.00028796,0.0,0 STARLINK-5171,1 54077U 22136AC  24216.27271715  .00028796  00000-0  17758-2 0  9996,2 54077  53.2169  62.8153 0000327 100.2395 259.8634 15.09740091 99537,6915.131,95.381,537.222,536.769,0.0
54077.0,STARLINK-5171,PAYLOAD,2024-08-03 22:25:59,15.09780743,2.32e-05,53.2166,59.8397,89.4044,270.6975,0.002064,0.00033577,0.0,0 STARLINK-5171,1 54077U 22136AC  24216.93471308  .00033577  00000-0  20640-2 0  9996,2 54077  53.2166  59.8397 0000232  89.4044 270.6975 15.09780743 99159,6915.006,95.378,537.032,536.711,0.0
54077.0,STARLINK-5171,PAYLOAD,2024-08-04 14:19:13,15.09825955,1.82e-05,53.2164,56.8632,97.0097,263.0916,0.0021894,0.0003569,0.0,0 STARLINK-5171,1 54077U 22136AC  24217.59668980  .00035690  00000-0  21894-2 0  9993,2 54077  53.2164  56.8632 0000182  97.0097 263.0916 15.09825955 99250,6914.868,95.375,536.859,536.608,0.0
54077.0,STARLINK-5171,PAYLOAD,2024-08-04 20:40:31,15.09868211,1.46e-05,53.2161,55.6725,84.3566,275.7443,0.0040684,0.00066943,0.0,0 STARLINK-5171,1 54077U 22136AC  24217.86147398  .00066943  00000-0  40684-2 0  9991,2 54077  53.2161  55.6725 0000146  84.3566 275.7443 15.09868211 99771,6914.739,95.373,536.705,536.503,0.0
54077.0,STARLINK-5171,PAYLOAD,2024-08-05 06:12:26,15.09876786,1.33e-05,53.2159,53.8867,90.0937,270.0071,0.0021744,0.00035493,0.0,0 STARLINK-5171,1 54077U 22136AC  24218.25864400  .00035493  00000-0  21744-2 0  9997,2 54077  53.2159  53.8867 0000133  90.0937 270.0071 15.09876786 99835,6914.713,95.372,536.67,536.486,0.0
54077.0,STARLINK-5171,PAYLOAD,2024-08-05 20:30:18,15.09914469,1.03e-05,53.2158,51.2077,57.0979,303.0024,0.0017957,0.00029265,0.0,0 STARLINK-5171,1 54077U 22136AC  24218.85438512  .00029265  00000-0  17957-2 0  9995,2 54077  53.2158  51.2077 0000103  57.0979 303.0024 15.09914469 99448,6914.598,95.37,536.534,536.392,0.0
54077.0,STARLINK-5171,PAYLOAD,2024-08-06 12:23:28,15.09954912,1.18e-05,53.2157,48.2309,17.448,342.6517,0.0017352,0.00028297,0.0,0 STARLINK-5171,1 54077U 22136AC  24219.51630301  .00028297  00000-0  17352-2 0  9992,2 54077  53.2157  48.2309 0000118  17.4480 342.6517 15.09954912100024,6914.475,95.367,536.421,536.258,0.0
54077.0,STARLINK-5171,PAYLOAD,2024-08-06 20:20:02,15.09976261,1.86e-05,53.2159,46.7426,7.4916,352.6079,0.0018944,0.0003095,0.0,0 STARLINK-5171,1 54077U 22136AC  24219.84725542  .00030950  00000-0  18944-2 0  9997,2 54077  53.2159  46.7426 0000186   7.4916 352.6079 15.09976261 99591,6914.409,95.366,536.403,536.146,0.0
54077.0,STARLINK-5171,PAYLOAD,2024-08-07 18:34:24,15.10039071,3.61e-05,53.2163,42.5751,355.1121,4.9868,0.0020701,0.00033921,0.0,0 STARLINK-5171,1 54077U 22136AC  24220.77389656  .00033921  00000-0  20701-2 0  9998,2 54077  53.2163  42.5751 0000361 355.1121   4.9868 15.10039071100213,6914.218,95.362,536.332,535.833,0.0
54077.0,STARLINK-5171,PAYLOAD,2024-08-08 12:02:47,15.10097724,5.07e-05,53.2168,39.3004,352.504,7.5945,0.0023559,0.00038733,0.0,0 STARLINK-5171,1 54077U 22136AC  24221.50194221  .00038733  00000-0  23559-2 0  9992,2 54077  53.2168  39.3004 0000507 352.5040   7.5945 15.10097724 99846,6914.039,95.358,536.254,535.553,0.0
54077.0,STARLINK-5171,PAYLOAD,2024-08-08 18:24:01,15.1012183,5.92e-05,53.217,38.1098,351.9955,8.1028,0.0025979,0.00042795,0.0,0 STARLINK-5171,1 54077U 22136AC  24221.76667882  .00042795  00000-0  25979-2 0  9999,2 54077  53.2170  38.1098 0000592 351.9955   8.1028 15.10121830100366,6913.965,95.357,536.239,535.421,0.0
54077.0,STARLINK-5171,PAYLOAD,2024-08-09 21:24:08,15.10226386,7.96e-05,53.2179,33.0485,350.7283,9.3695,0.0027883,0.00046107,0.0,0 STARLINK-5171,1 54077U 22136AC  24222.89176159  .00046107  00000-0  27883-2 0  9993,2 54077  53.2179  33.0485 0000796 350.7283   9.3695 15.10226386100530,6913.646,95.35,536.061,534.961,0.0
54077.0,STARLINK-5171,PAYLOAD,2024-08-10 14:52:23,15.10302273,9.5e-05,53.2181,29.7739,347.7057,12.3913,0.0028285,0.0004688,0.0,0 STARLINK-5171,1 54077U 22136AC  24223.61971103  .00046880  00000-0  28285-2 0  9991,2 54077  53.2181  29.7739 0000950 347.7057  12.3913 15.10302273100160,6913.414,95.345,535.936,534.623,0.0
54077.0,STARLINK-5171,PAYLOAD,2024-08-10 18:02:58,15.10317496,9.64e-05,53.2184,29.1785,349.6847,10.4126,0.0029276,0.00048564,0.0,0 STARLINK-5171,1 54077U 22136AC  24223.75206148  .00048564  00000-0  29276-2 0  9998,2 54077  53.2184  29.1785 0000964 349.6847  10.4126 15.10317496100664,6913.368,95.344,535.899,534.567,0.0
54077.0,STARLINK-5171,PAYLOAD,2024-08-11 11:31:08,15.1040982,0.0001256,53.2183,25.9037,345.5307,14.5649,0.0032094,0.0005344,0.0,0 STARLINK-5171,1 54077U 22136AC  24224.47996241  .00053440  00000-0  32094-2 0  9999,2 54077  53.2183  25.9037 0001256 345.5307  14.5649 15.10409820100778,6913.086,95.338,535.82,534.083,0.0
54077.0,STARLINK-5171,PAYLOAD,2024-08-11 17:52:17,15.10447801,0.0001243,53.2186,24.7126,345.5845,14.5112,0.0037584,0.0006278,0.0,0 STARLINK-5171,1 54077U 22136AC  24224.74464267  .00062780  00000-0  37584-2 0  9993,2 54077  53.2186  24.7126 0001243 345.5845  14.5112 15.10447801100338,6912.97,95.336,535.695,533.976,0.0
54077.0,STARLINK-5171,PAYLOAD,2024-08-12 03:23:58,15.10502081,0.0001354,53.2184,22.926,346.4995,13.5962,0.0031747,0.00052991,0.0,0 STARLINK-5171,1 54077U 22136AC  24225.14165030  .00052991  00000-0  31747-2 0  9992,2 54077  53.2184  22.9260 0001354 346.4995  13.5962 15.10502081100877,6912.805,95.333,535.606,533.734,0.0
54077.0,STARLINK-5171,PAYLOAD,2024-08-12 11:20:22,15.10554156,0.0001624,53.2173,21.4368,342.4917,17.602,0.0032493,0.00054332,0.0,0 STARLINK-5171,1 54077U 22136AC  24225.47247767  .00054332  00000-0  32493-2 0  9996,2 54077  53.2173  21.4368 0001624 342.4917  17.6020 15.10554156100924,6912.646,95.329,535.633,533.388,0.0
54077.0,STARLINK-5171,PAYLOAD,2024-08-12 20:52:00,15.10662012,0.000139,53.2183,19.6506,344.2392,15.8558,0.0081473,0.0013872,0.0,0 STARLINK-5171,1 54077U 22136AC  24225.86945094  .00138720  00000-0  81473-2 0  9993,2 54077  53.2183  19.6506 0001390 344.2392  15.8558 15.10662012100988,6912.317,95.322,535.143,533.221,0.0
54077.0,STARLINK-5171,PAYLOAD,2024-08-13 03:13:05,15.10658907,0.0001579,53.2175,18.4573,339.5182,20.5747,0.0018466,0.00030738,0.0,0 STARLINK-5171,1 54077U 22136AC  24226.13409184  .00030738  00000-0  18466-2 0  9991,2 54077  53.2175  18.4573 0001579 339.5182  20.5747 15.10658907101020,6912.326,95.323,535.283,533.1,0.0
